BEIJING 1               
1 28890U 05043A   26095.26882743  .00000583  00000+0  12174-3 0  9994
2 28890  98.2786 228.1234 0015273 145.7295 214.4895 14.63487639 89980
HUANJING 1A (HJ-1A)     
1 33320U 08041A   26095.27304161  .00001516  00000+0  18855-3 0  9992
2 33320  97.6663  83.9546 0019764  22.7364 337.4722 14.83819935947599
HUANJING 1B (HJ-1B)     
1 33321U 08041B   26095.27763418  .00002915  00000+0  35888-3 0  9996
2 33321  97.6505  87.3461 0038004  63.7593 296.7520 14.83184981947607
YAOGAN-4                
1 33446U 08061A   26095.23613725  .00002019  00000+0  25429-3 0  9992
2 33446  97.9272  29.3093 0013227 312.8048  47.2053 14.83063150934856
DEIMOS-1                
1 35681U 09041A   26095.27041606  .00001249  00000+0  19201-3 0  9996
2 35681  97.7307 255.6949 0002712  79.1193 281.0322 14.75160700896136
UK-DMC 2                
1 35683U 09041C   26095.28033360  .00001924  00000+0  28723-3 0  9996
2 35683  97.8711 232.0820 0001526  99.1720 260.9663 14.75916683895812
DMC3-FM1                
1 40715U 15032A   26095.26532964  .00001774  00000+0  21066-3 0  9993
2 40715  97.6565 323.2606 0004254 305.3402  54.7416 14.85661544579081
DMC3-FM2                
1 40716U 15032B   26095.22025029  .00000903  00000+0  11009-3 0  9998
2 40716  97.6620 324.7410 0004919 311.3844  48.6948 14.85661800579074
DMC3-FM3                
1 40717U 15032C   26095.24333742  .00001021  00000+0  12373-3 0  9992
2 40717  97.6671 326.4690 0004185 311.6614  48.4243 14.85660484579087
