[{"OBJECT_NAME":"BEIJING 1","OBJECT_ID":"2005-043A","EPOCH":"2026-04-05T06:27:06.689952","MEAN_MOTION":14.63487639,"ECCENTRICITY":0.00152737,"INCLINATION":98.2786,"RA_OF_ASC_NODE":228.1234,"ARG_OF_PERICENTER":145.7295,"MEAN_ANOMALY":214.4895,"EPHEMERIS_TYPE":0,"CLASSIFICATION_TYPE":"U","NORAD_CAT_ID":28890,"ELEMENT_SET_NO":999,"REV_AT_EPOCH":8998,"BSTAR":0.00012174038,"MEAN_MOTION_DOT":5.83e-6,"MEAN_MOTION_DDOT":0},{"OBJECT_NAME":"HUANJING 1A (HJ-1A)","OBJECT_ID":"2008-041A","EPOCH":"2026-04-05T06:33:10.795104","MEAN_MOTION":14.83819935,"ECCENTRICITY":0.00197649,"INCLINATION":97.6663,"RA_OF_ASC_NODE":83.9546,"ARG_OF_PERICENTER":22.7364,"MEAN_ANOMALY":337.4722,"EPHEMERIS_TYPE":0,"CLASSIFICATION_TYPE":"U","NORAD_CAT_ID":33320,"ELEMENT_SET_NO":999,"REV_AT_EPOCH":94759,"BSTAR":0.00018854853,"MEAN_MOTION_DOT":1.516e-5,"MEAN_MOTION_DDOT":0},{"OBJECT_NAME":"HUANJING 1B (HJ-1B)","OBJECT_ID":"2008-041B","EPOCH":"2026-04-05T06:39:47.593152","MEAN_MOTION":14.83184981,"ECCENTRICITY":0.0038004,"INCLINATION":97.6505,"RA_OF_ASC_NODE":87.3461,"ARG_OF_PERICENTER":63.7593,"MEAN_ANOMALY":296.752,"EPHEMERIS_TYPE":0,"CLASSIFICATION_TYPE":"U","NORAD_CAT_ID":33321,"ELEMENT_SET_NO":999,"REV_AT_EPOCH":94760,"BSTAR":0.00035887862,"MEAN_MOTION_DOT":2.915e-5,"MEAN_MOTION_DDOT":0},{"OBJECT_NAME":"YAOGAN-4","OBJECT_ID":"2008-061A","EPOCH":"2026-04-05T05:40:02.258400","MEAN_MOTION":14.8306315,"ECCENTRICITY":0.00132274,"INCLINATION":97.9272,"RA_OF_ASC_NODE":29.3093,"ARG_OF_PERICENTER":312.8048,"MEAN_ANOMALY":47.2053,"EPHEMERIS_TYPE":0,"CLASSIFICATION_TYPE":"U","NORAD_CAT_ID":33446,"ELEMENT_SET_NO":999,"REV_AT_EPOCH":93485,"BSTAR":0.00025429285,"MEAN_MOTION_DOT":2.019e-5,"MEAN_MOTION_DDOT":0},{"OBJECT_NAME":"DEIMOS-1","OBJECT_ID":"2009-041A","EPOCH":"2026-04-05T06:29:23.947584","MEAN_MOTION":14.751607,"ECCENTRICITY":0.00027123,"INCLINATION":97.7307,"RA_OF_ASC_NODE":255.6949,"ARG_OF_PERICENTER":79.1193,"MEAN_ANOMALY":281.0322,"EPHEMERIS_TYPE":0,"CLASSIFICATION_TYPE":"U","NORAD_CAT_ID":35681,"ELEMENT_SET_NO":999,"REV_AT_EPOCH":89613,"BSTAR":0.00019200867,"MEAN_MOTION_DOT":1.249e-5,"MEAN_MOTION_DDOT":0},{"OBJECT_NAME":"UK-DMC 2","OBJECT_ID":"2009-041C","EPOCH":"2026-04-05T06:43:40.823040","MEAN_MOTION":14.75916683,"ECCENTRICITY":0.00015267,"INCLINATION":97.8711,"RA_OF_ASC_NODE":232.082,"ARG_OF_PERICENTER":99.172,"MEAN_ANOMALY":260.9663,"EPHEMERIS_TYPE":0,"CLASSIFICATION_TYPE":"U","NORAD_CAT_ID":35683,"ELEMENT_SET_NO":999,"REV_AT_EPOCH":89581,"BSTAR":0.00028722583,"MEAN_MOTION_DOT":1.924e-5,"MEAN_MOTION_DDOT":0},{"OBJECT_NAME":"DMC3-FM1","OBJECT_ID":"2015-032A","EPOCH":"2026-04-05T06:22:04.480896","MEAN_MOTION":14.85661544,"ECCENTRICITY":0.00042544,"INCLINATION":97.6565,"RA_OF_ASC_NODE":323.2606,"ARG_OF_PERICENTER":305.3402,"MEAN_ANOMALY":54.7416,"EPHEMERIS_TYPE":0,"CLASSIFICATION_TYPE":"U","NORAD_CAT_ID":40715,"ELEMENT_SET_NO":999,"REV_AT_EPOCH":57908,"BSTAR":0.00021066208,"MEAN_MOTION_DOT":1.774e-5,"MEAN_MOTION_DDOT":0},{"OBJECT_NAME":"DMC3-FM2","OBJECT_ID":"2015-032B","EPOCH":"2026-04-05T05:17:09.625056","MEAN_MOTION":14.856618,"ECCENTRICITY":0.00049191,"INCLINATION":97.662,"RA_OF_ASC_NODE":324.741,"ARG_OF_PERICENTER":311.3844,"MEAN_ANOMALY":48.6948,"EPHEMERIS_TYPE":0,"CLASSIFICATION_TYPE":"U","NORAD_CAT_ID":40716,"ELEMENT_SET_NO":999,"REV_AT_EPOCH":57907,"BSTAR":0.000110087,"MEAN_MOTION_DOT":9.03e-6,"MEAN_MOTION_DDOT":0},{"OBJECT_NAME":"DMC3-FM3","OBJECT_ID":"2015-032C","EPOCH":"2026-04-05T05:50:24.353088","MEAN_MOTION":14.85660484,"ECCENTRICITY":0.00041857,"INCLINATION":97.6671,"RA_OF_ASC_NODE":326.469,"ARG_OF_PERICENTER":311.6614,"MEAN_ANOMALY":48.4243,"EPHEMERIS_TYPE":0,"CLASSIFICATION_TYPE":"U","NORAD_CAT_ID":40717,"ELEMENT_SET_NO":999,"REV_AT_EPOCH":57908,"BSTAR":0.00012373098,"MEAN_MOTION_DOT":1.021e-5,"MEAN_MOTION_DDOT":0}]
